{"type": "FeatureCollection", "features": [ {"type": "Feature", "properties": {"norad_id": 30345, "name": "FENGYUN 1C DEB", "group": "fengyun-1c-debris", "lat": 15.615199579876466, "lon": -125.19363062977975, "alt_km": 747.3789183438275, "timestamp": "2025-12-18T15:47:11.498895+00:00", "meta": {"OBJECT_NAME": "FENGYUN 1C DEB", "OBJECT_ID": "1999-025ABG", "EPOCH": "2025-12-18T03:22:01.595136", "MEAN_MOTION": 14.41728381, "ECCENTRICITY": 0.00177198, "INCLINATION": 98.9215, "RA_OF_ASC_NODE": 51.7498, "ARG_OF_PERICENTER": 226.8513, "MEAN_ANOMALY": 133.1194, "EPHEMERIS_TYPE": 0, "CLASSIFICATION_TYPE": "U", "NORAD_CAT_ID": 30345, "ELEMENT_SET_NO": 999, "REV_AT_EPOCH": 97851, "BSTAR": 0.0015682058, "MEAN_MOTION_DOT": 5.081e-05, "MEAN_MOTION_DDOT": 0}, "tle": {"line1": "1 30345U 99025ABG 25352.14029624  .00005081  00000+0  15682-2 0  9992", "line2": "2 30345  98.9215  51.7498 0017719 226.8513 133.1194 14.41728381978518"}}, "geometry": {"type": "Point", "coordinates": [-125.19363062977975, 15.615199579876466]}}, {"type": "Feature", "properties": {"norad_id": 30346, "name": "FENGYUN 1C DEB", "group": "fengyun-1c-debris", "lat": 69.45908931753353, "lon": 65.02360172605829, "alt_km": 755.07126579545, "timestamp": "2025-12-18T15:47:11.498906+00:00", "meta": {"OBJECT_NAME": "FENGYUN 1C DEB", "OBJECT_ID": "1999-025ABH", "EPOCH": "2025-12-18T05:39:26.740224", "MEAN_MOTION": 14.33949002, "ECCENTRICITY": 0.00551233, "INCLINATION": 98.809, "RA_OF_ASC_NODE": 89.0408, "ARG_OF_PERICENTER": 7.4131, "MEAN_ANOMALY": 45.9663, "EPHEMERIS_TYPE": 0, "CLASSIFICATION_TYPE": "U", "NORAD_CAT_ID": 30346, "ELEMENT_SET_NO": 999, "REV_AT_EPOCH": 97492, "BSTAR": 0.0015653205, "MEAN_MOTION_DOT": 4.397e-05, "MEAN_MOTION_DDOT": 0}, "tle": {"line1": "1 30346U 99025ABH 25352.23572616  .00004397  00000+0  15653-2 0  9994", "line2": "2 30346  98.8090  89.0408 0055123   7.4131  45.9663 14.33949002974922"}}, "geometry": {"type": "Point", "coordinates": [65.02360172605829, 69.45908931753353]}}, {"type": "Feature", "properties": {"norad_id": 30347, "name": "FENGYUN 1C DEB", "group": "fengyun-1c-debris", "lat": -54.66975711299642, "lon": -172.02669671200272, "alt_km": 891.9461217282314, "timestamp": "2025-12-18T15:47:11.498916+00:00", "meta": {"OBJECT_NAME": "FENGYUN 1C DEB", "OBJECT_ID": "1999-025ABJ", "EPOCH": "2025-12-17T10:52:31.194912", "MEAN_MOTION": 13.92770847, "ECCENTRICITY": 0.01504013, "INCLINATION": 98.3766, "RA_OF_ASC_NODE": 174.8855, "ARG_OF_PERICENTER": 20.6583, "MEAN_ANOMALY": 8.85, "EPHEMERIS_TYPE": 0, "CLASSIFICATION_TYPE": "U", "NORAD_CAT_ID": 30347, "ELEMENT_SET_NO": 999, "REV_AT_EPOCH": 96026, "BSTAR": 0.00019108051, "MEAN_MOTION_DOT": 2.33e-06, "MEAN_MOTION_DDOT": 0}, "tle": {"line1": "1 30347U 99025ABJ 25351.45313883  .00000233  00000+0  19108-3 0  9992", "line2": "2 30347  98.3766 174.8855 0150401  20.6583   8.8500 13.92770847960263"}}, "geometry": {"type": "Point", "coordinates": [-172.02669671200272, -54.66975711299642]}}, {"type": "Feature", "properties": {"norad_id": 30348, "name": "FENGYUN 1C DEB", "group": "fengyun-1c-debris", "lat": 29.218424282561823, "lon": 82.56428887995114, "alt_km": 762.7450882363382, "timestamp": "2025-12-18T15:47:11.498926+00:00", "meta": {"OBJECT_NAME": "FENGYUN 1C DEB", "OBJECT_ID": "1999-025ABK", "EPOCH": "2025-12-18T05:44:27.722400", "MEAN_MOTION": 14.3515849, "ECCENTRICITY": 0.00171168, "INCLINATION": 98.8637, "RA_OF_ASC_NODE": 87.1417, "ARG_OF_PERICENTER": 358.3935, "MEAN_ANOMALY": 29.9021, "EPHEMERIS_TYPE": 0, "CLASSIFICATION_TYPE": "U", "NORAD_CAT_ID": 30348, "ELEMENT_SET_NO": 999, "REV_AT_EPOCH": 97613, "BSTAR": 0.0015567864, "MEAN_MOTION_DOT": 4.411e-05, "MEAN_MOTION_DDOT": 0}, "tle": {"line1": "1 30348U 99025ABK 25352.23920975  .00004411  00000+0  15568-2 0  9993", "line2": "2 30348  98.8637  87.1417 0017116 358.3935  29.9021 14.35158490976130"}}, "geometry": {"type": "Point", "coordinates": [82.56428887995114, 29.218424282561823]}}, {"type": "Feature", "properties": {"norad_id": 30349, "name": "FENGYUN 1C DEB", "group": "fengyun-1c-debris", "lat": -34.876061851477644, "lon": 128.79977201801896, "alt_km": 911.1277869833029, "timestamp": "2025-12-18T15:47:11.498936+00:00", "meta": {"OBJECT_NAME": "FENGYUN 1C DEB", "OBJECT_ID": "1999-025ABL", "EPOCH": "2025-12-17T20:19:32.884032", "MEAN_MOTION": 14.11144329, "ECCENTRICITY": 0.00891965, "INCLINATION": 98.5842, "RA_OF_ASC_NODE": 314.0678, "ARG_OF_PERICENTER": 357.9518, "MEAN_ANOMALY": 60.9512, "EPHEMERIS_TYPE": 0, "CLASSIFICATION_TYPE": "U", "NORAD_CAT_ID": 30349, "ELEMENT_SET_NO": 999, "REV_AT_EPOCH": 96303, "BSTAR": 0.0017554551, "MEAN_MOTION_DOT": 3.242e-05, "MEAN_MOTION_DDOT": 0}, "tle": {"line1": "1 30349U 99025ABL 25351.84690838  .00003242  00000+0  17555-2 0  9991", "line2": "2 30349  98.5842 314.0678 0089196 357.9518  60.9512 14.11144329963031"}}, "geometry": {"type": "Point", "coordinates": [128.79977201801896, -34.876061851477644]}}, {"type": "Feature", "properties": {"norad_id": 30350, "name": "FENGYUN 1C DEB", "group": "fengyun-1c-debris", "lat": -81.89603862439402, "lon": -102.09321447350904, "alt_km": 811.701382088002, "timestamp": "2025-12-18T15:47:11.498947+00:00", "meta": {"OBJECT_NAME": "FENGYUN 1C DEB", "OBJECT_ID": "1999-025ABM", "EPOCH": "2025-12-17T10:49:24.461184", "MEAN_MOTION": 13.82822682, "ECCENTRICITY": 0.02192911, "INCLINATION": 98.0926, "RA_OF_ASC_NODE": 169.1689, "ARG_OF_PERICENTER": 295.6998, "MEAN_ANOMALY": 91.2599, "EPHEMERIS_TYPE": 0, "CLASSIFICATION_TYPE": "U", "NORAD_CAT_ID": 30350, "ELEMENT_SET_NO": 999, "REV_AT_EPOCH": 95047, "BSTAR": 0.00068627096, "MEAN_MOTION_DOT": 8.62e-06, "MEAN_MOTION_DDOT": 0}, "tle": {"line1": "1 30350U 99025ABM 25351.45097756  .00000862  00000+0  68627-3 0  9992", "line2": "2 30350  98.0926 169.1689 0219291 295.6998  91.2599 13.82822682950471"}}, "geometry": {"type": "Point", "coordinates": [-102.09321447350904, -81.89603862439402]}}, {"type": "Feature", "properties": {"norad_id": 30352, "name": "FENGYUN 1C DEB", "group": "fengyun-1c-debris", "lat": -9.175336500394371, "lon": 14.987234459938385, "alt_km": 858.3645959176547, "timestamp": "2025-12-18T15:47:11.498957+00:00", "meta": {"OBJECT_NAME": "FENGYUN 1C DEB", "OBJECT_ID": "1999-025ABP", "EPOCH": "2025-12-18T07:22:38.465760", "MEAN_MOTION": 14.07588211, "ECCENTRICITY": 0.0027687, "INCLINATION": 98.7638, "RA_OF_ASC_NODE": 13.2196, "ARG_OF_PERICENTER": 303.1524, "MEAN_ANOMALY": 72.9309, "EPHEMERIS_TYPE": 0, "CLASSIFICATION_TYPE": "U", "NORAD_CAT_ID": 30352, "ELEMENT_SET_NO": 999, "REV_AT_EPOCH": 96989, "BSTAR": 0.00013049639, "MEAN_MOTION_DOT": 1.78e-06, "MEAN_MOTION_DDOT": 0}, "tle": {"line1": "1 30352U 99025ABP 25352.30738965  .00000178  00000+0  13050-3 0  9993", "line2": "2 30352  98.7638  13.2196 0027687 303.1524  72.9309 14.07588211969894"}}, "geometry": {"type": "Point", "coordinates": [14.987234459938385, -9.175336500394371]}}, {"type": "Feature", "properties": {"norad_id": 30355, "name": "FENGYUN 1C DEB", "group": "fengyun-1c-debris", "lat": -39.43358515801619, "lon": 169.6838456803715, "alt_km": 823.9547822371251, "timestamp": "2025-12-18T15:47:11.498968+00:00", "meta": {"OBJECT_NAME": "FENGYUN 1C DEB", "OBJECT_ID": "1999-025ABS", "EPOCH": "2025-12-17T23:46:32.070144", "MEAN_MOTION": 14.18834409, "ECCENTRICITY": 0.0053027, "INCLINATION": 98.5886, "RA_OF_ASC_NODE": 356.1772, "ARG_OF_PERICENTER": 294.1435, "MEAN_ANOMALY": 120.6989, "EPHEMERIS_TYPE": 0, "CLASSIFICATION_TYPE": "U", "NORAD_CAT_ID": 30355, "ELEMENT_SET_NO": 999, "REV_AT_EPOCH": 97425, "BSTAR": 0.00054425065, "MEAN_MOTION_DOT": 1.105e-05, "MEAN_MOTION_DDOT": 0}, "tle": {"line1": "1 30355U 99025ABS 25351.99064896  .00001105  00000+0  54425-3 0  9997", "line2": "2 30355  98.5886 356.1772 0053027 294.1435 120.6989 14.18834409974252"}}, "geometry": {"type": "Point", "coordinates": [169.6838456803715, -39.43358515801619]}}, {"type": "Feature", "properties": {"norad_id": 30356, "name": "FENGYUN 1C DEB", "group": "fengyun-1c-debris", "lat": -74.99782484198808, "lon": 132.9620886155013, "alt_km": 819.8003593734393, "timestamp": "2025-12-18T15:47:11.498979+00:00", "meta": {"OBJECT_NAME": "FENGYUN 1C DEB", "OBJECT_ID": "1999-025ABT", "EPOCH": "2025-12-18T06:09:51.437376", "MEAN_MOTION": 14.13049861, "ECCENTRICITY": 0.00520106, "INCLINATION": 98.6813, "RA_OF_ASC_NODE": 347.3313, "ARG_OF_PERICENTER": 273.1022, "MEAN_ANOMALY": 106.3744, "EPHEMERIS_TYPE": 0, "CLASSIFICATION_TYPE": "U", "NORAD_CAT_ID": 30356, "ELEMENT_SET_NO": 999, "REV_AT_EPOCH": 97099, "BSTAR": 0.00059175515, "MEAN_MOTION_DOT": 1.076e-05, "MEAN_MOTION_DDOT": 0}, "tle": {"line1": "1 30356U 99025ABT 25352.25684534  .00001076  00000+0  59176-3 0  9990", "line2": "2 30356  98.6813 347.3313 0052010 273.1022 106.3744 14.13049861970999"}}, "geometry": {"type": "Point", "coordinates": [132.9620886155013, -74.99782484198808]}}, {"type": "Feature", "properties": {"norad_id": 30357, "name": "FENGYUN 1C DEB", "group": "fengyun-1c-debris", "lat": -77.7827946238008, "lon": 65.45055219468865, "alt_km": 853.8927171723481, "timestamp": "2025-12-18T15:47:11.498989+00:00", "meta": {"OBJECT_NAME": "FENGYUN 1C DEB", "OBJECT_ID": "1999-025ABU", "EPOCH": "2025-12-18T07:55:53.256000", "MEAN_MOTION": 14.05264155, "ECCENTRICITY": 0.00486687, "INCLINATION": 98.8055, "RA_OF_ASC_NODE": 19.4174, "ARG_OF_PERICENTER": 314.2578, "MEAN_ANOMALY": 109.7265, "EPHEMERIS_TYPE": 0, "CLASSIFICATION_TYPE": "U", "NORAD_CAT_ID": 30357, "ELEMENT_SET_NO": 999, "REV_AT_EPOCH": 96885, "BSTAR": 6.7666858e-05, "MEAN_MOTION_DOT": 6.7e-07, "MEAN_MOTION_DDOT": 0}, "tle": {"line1": "1 30357U 99025ABU 25352.33047750  .00000067  00000+0  67667-4 0  9997", "line2": "2 30357  98.8055  19.4174 0048668 314.2578 109.7265 14.05264155968852"}}, "geometry": {"type": "Point", "coordinates": [65.45055219468865, -77.7827946238008]}}]}